{"type": "FeatureCollection", "features": [{"type": "Feature", "properties": {"norad_id": 24946, "name": "IRIDIUM 33", "group": "iridium-33-debris", "lat": 3.451902418946114, "lon": -116.47542581103832, "alt_km": 771.7816342316182, "timestamp": "2025-12-23T09:49:07.467692+00:00", "meta": {"OBJECT_NAME": "IRIDIUM 33", "OBJECT_ID": "1997-051C", "EPOCH": "2025-12-22T04:33:00.643392", "MEAN_MOTION": 14.35043647, "ECCENTRICITY": 0.00081627, "INCLINATION": 86.3861, "RA_OF_ASC_NODE": 64.2549, "ARG_OF_PERICENTER": 169.1562, "MEAN_ANOMALY": 190.9812, "EPHEMERIS_TYPE": 0, "CLASSIFICATION_TYPE": "U", "NORAD_CAT_ID": 24946, "ELEMENT_SET_NO": 999, "REV_AT_EPOCH": 47970, "BSTAR": 0.00010632795, "MEAN_MOTION_DOT": 3.23e-06, "MEAN_MOTION_DDOT": 0}, "tle": {"line1": "1 24946U 97051C   25356.18959078  .00000323  00000+0  10633-3 0  9998", "line2": "2 24946  86.3861  64.2549 0008162 169.1562 190.9812 14.35043647479700"}}, "geometry": {"type": "Point", "coordinates": [-116.47542581103832, 3.451902418946114]}}, {"type": "Feature", "properties": {"norad_id": 33773, "name": "IRIDIUM 33 DEB", "group": "iridium-33-debris", "lat": 86.22621591684565, "lon": 128.71261113059842, "alt_km": 731.7916215485948, "timestamp": "2025-12-23T09:49:07.467717+00:00", "meta": {"OBJECT_NAME": "IRIDIUM 33 DEB", "OBJECT_ID": "1997-051L", "EPOCH": "2025-12-22T21:45:40.389408", "MEAN_MOTION": 14.43277629, "ECCENTRICITY": 0.00132052, "INCLINATION": 86.3999, "RA_OF_ASC_NODE": 56.2809, "ARG_OF_PERICENTER": 117.0954, "MEAN_ANOMALY": 243.1595, "EPHEMERIS_TYPE": 0, "CLASSIFICATION_TYPE": "U", "NORAD_CAT_ID": 33773, "ELEMENT_SET_NO": 999, "REV_AT_EPOCH": 88494, "BSTAR": 0.00028209624, "MEAN_MOTION_DOT": 9.7e-06, "MEAN_MOTION_DDOT": 0}, "tle": {"line1": "1 33773U 97051L   25356.90671747  .00000970  00000+0  28210-3 0  9998", "line2": "2 33773  86.3999  56.2809 0013205 117.0954 243.1595 14.43277629884944"}}, "geometry": {"type": "Point", "coordinates": [128.71261113059842, 86.22621591684565]}}, {"type": "Feature", "properties": {"norad_id": 33775, "name": "IRIDIUM 33 DEB", "group": "iridium-33-debris", "lat": 75.7011173851056, "lon": -149.45436356016995, "alt_km": 736.2605082769824, "timestamp": "2025-12-23T09:49:07.467733+00:00", "meta": {"OBJECT_NAME": "IRIDIUM 33 DEB", "OBJECT_ID": "1997-051N", "EPOCH": "2025-12-22T15:36:07.484832", "MEAN_MOTION": 14.41488344, "ECCENTRICITY": 0.00151547, "INCLINATION": 86.3626, "RA_OF_ASC_NODE": 45.3222, "ARG_OF_PERICENTER": 125.0878, "MEAN_ANOMALY": 2.417, "EPHEMERIS_TYPE": 0, "CLASSIFICATION_TYPE": "U", "NORAD_CAT_ID": 33775, "ELEMENT_SET_NO": 999, "REV_AT_EPOCH": 88283, "BSTAR": 0.00027383459, "MEAN_MOTION_DOT": 9.09e-06, "MEAN_MOTION_DDOT": 0}, "tle": {"line1": "1 33775U 97051N   25356.65008663  .00000909  00000+0  27383-3 0  9995", "line2": "2 33775  86.3626  45.3222 0015154 125.0878   2.4170 14.41488344882837"}}, "geometry": {"type": "Point", "coordinates": [-149.45436356016995, 75.7011173851056]}}, {"type": "Feature", "properties": {"norad_id": 33776, "name": "IRIDIUM 33 DEB", "group": "iridium-33-debris", "lat": -29.642534248031343, "lon": -101.65347308569528, "alt_km": 763.670489813574, "timestamp": "2025-12-23T09:49:07.467745+00:00", "meta": {"OBJECT_NAME": "IRIDIUM 33 DEB", "OBJECT_ID": "1997-051P", "EPOCH": "2025-12-22T16:51:39.029184", "MEAN_MOTION": 14.38251733, "ECCENTRICITY": 0.00154751, "INCLINATION": 86.4032, "RA_OF_ASC_NODE": 76.592, "ARG_OF_PERICENTER": 158.5765, "MEAN_ANOMALY": 354.7393, "EPHEMERIS_TYPE": 0, "CLASSIFICATION_TYPE": "U", "NORAD_CAT_ID": 33776, "ELEMENT_SET_NO": 999, "REV_AT_EPOCH": 88225, "BSTAR": 0.00024583276, "MEAN_MOTION_DOT": 7.68e-06, "MEAN_MOTION_DDOT": 0}, "tle": {"line1": "1 33776U 97051P   25356.70253506  .00000768  00000+0  24583-3 0  9992", "line2": "2 33776  86.4032  76.5920 0015475 158.5765 354.7393 14.38251733882255"}}, "geometry": {"type": "Point", "coordinates": [-101.65347308569528, -29.642534248031343]}}, {"type": "Feature", "properties": {"norad_id": 33777, "name": "IRIDIUM 33 DEB", "group": "iridium-33-debris", "lat": -55.10428720843082, "lon": 25.350132235072934, "alt_km": 715.1072218307318, "timestamp": "2025-12-23T09:49:07.467757+00:00", "meta": {"OBJECT_NAME": "IRIDIUM 33 DEB", "OBJECT_ID": "1997-051Q", "EPOCH": "2025-12-22T20:52:27.158592", "MEAN_MOTION": 14.55680039, "ECCENTRICITY": 0.00060634, "INCLINATION": 86.3772, "RA_OF_ASC_NODE": 30.7963, "ARG_OF_PERICENTER": 205.4484, "MEAN_ANOMALY": 154.6426, "EPHEMERIS_TYPE": 0, "CLASSIFICATION_TYPE": "U", "NORAD_CAT_ID": 33777, "ELEMENT_SET_NO": 999, "REV_AT_EPOCH": 88681, "BSTAR": 0.00081722537, "MEAN_MOTION_DOT": 3.591e-05, "MEAN_MOTION_DDOT": 0}, "tle": {"line1": "1 33777U 97051Q   25356.86975878  .00003591  00000+0  81723-3 0  9999", "line2": "2 33777  86.3772  30.7963 0006063 205.4484 154.6426 14.55680039886812"}}, "geometry": {"type": "Point", "coordinates": [25.350132235072934, -55.10428720843082]}}, {"type": "Feature", "properties": {"norad_id": 33850, "name": "IRIDIUM 33 DEB", "group": "iridium-33-debris", "lat": 68.89360148071738, "lon": -163.9516236716212, "alt_km": 735.7823851587673, "timestamp": "2025-12-23T09:49:07.467769+00:00", "meta": {"OBJECT_NAME": "IRIDIUM 33 DEB", "OBJECT_ID": "1997-051T", "EPOCH": "2025-12-22T20:33:02.280096", "MEAN_MOTION": 14.4216954, "ECCENTRICITY": 0.00132138, "INCLINATION": 86.3408, "RA_OF_ASC_NODE": 25.8291, "ARG_OF_PERICENTER": 130.8125, "MEAN_ANOMALY": 351.5929, "EPHEMERIS_TYPE": 0, "CLASSIFICATION_TYPE": "U", "NORAD_CAT_ID": 33850, "ELEMENT_SET_NO": 999, "REV_AT_EPOCH": 88298, "BSTAR": 0.00034025083, "MEAN_MOTION_DOT": 1.14e-05, "MEAN_MOTION_DDOT": 0}, "tle": {"line1": "1 33850U 97051T   25356.85627639  .00001140  00000+0  34025-3 0  9990", "line2": "2 33850  86.3408  25.8291 0013213 130.8125 351.5929 14.42169540882982"}}, "geometry": {"type": "Point", "coordinates": [-163.9516236716212, 68.89360148071738]}}, {"type": "Feature", "properties": {"norad_id": 33853, "name": "IRIDIUM 33 DEB", "group": "iridium-33-debris", "lat": -75.01262303554036, "lon": -30.01784926593122, "alt_km": 879.0700425453078, "timestamp": "2025-12-23T09:49:07.467781+00:00", "meta": {"OBJECT_NAME": "IRIDIUM 33 DEB", "OBJECT_ID": "1997-051W", "EPOCH": "2025-12-22T10:53:52.030752", "MEAN_MOTION": 13.99110392, "ECCENTRICITY": 0.02074764, "INCLINATION": 86.0002, "RA_OF_ASC_NODE": 345.5509, "ARG_OF_PERICENTER": 205.8505, "MEAN_ANOMALY": 308.872, "EPHEMERIS_TYPE": 0, "CLASSIFICATION_TYPE": "U", "NORAD_CAT_ID": 33853, "ELEMENT_SET_NO": 999, "REV_AT_EPOCH": 85481, "BSTAR": 0.001219662, "MEAN_MOTION_DOT": 2.14e-05, "MEAN_MOTION_DDOT": 0}, "tle": {"line1": "1 33853U 97051W   25356.45407443  .00002140  00000+0  12197-2 0  9994", "line2": "2 33853  86.0002 345.5509 0207476 205.8505 308.8720 13.99110392854814"}}, "geometry": {"type": "Point", "coordinates": [-30.01784926593122, -75.01262303554036]}}, {"type": "Feature", "properties": {"norad_id": 33860, "name": "IRIDIUM 33 DEB", "group": "iridium-33-debris", "lat": -65.90863225052536, "lon": 14.379933439116405, "alt_km": 672.388656425398, "timestamp": "2025-12-23T09:49:07.467793+00:00", "meta": {"OBJECT_NAME": "IRIDIUM 33 DEB", "OBJECT_ID": "1997-051AD", "EPOCH": "2025-12-22T20:12:18.436320", "MEAN_MOTION": 14.67480944, "ECCENTRICITY": 0.00062174, "INCLINATION": 86.3821, "RA_OF_ASC_NODE": 22.7657, "ARG_OF_PERICENTER": 318.6356, "MEAN_ANOMALY": 220.5655, "EPHEMERIS_TYPE": 0, "CLASSIFICATION_TYPE": "U", "NORAD_CAT_ID": 33860, "ELEMENT_SET_NO": 999, "REV_AT_EPOCH": 88870, "BSTAR": 0.0011220687, "MEAN_MOTION_DOT": 6.378e-05, "MEAN_MOTION_DDOT": 0}, "tle": {"line1": "1 33860U 97051AD  25356.84188005  .00006378  00000+0  11221-2 0  9999", "line2": "2 33860  86.3821  22.7657 0006217 318.6356 220.5655 14.67480944888700"}}, "geometry": {"type": "Point", "coordinates": [14.379933439116405, -65.90863225052536]}}, {"type": "Feature", "properties": {"norad_id": 33862, "name": "IRIDIUM 33 DEB", "group": "iridium-33-debris", "lat": 50.759641725505844, "lon": 37.23603294173271, "alt_km": 622.4795290491102, "timestamp": "2025-12-23T09:49:07.467804+00:00", "meta": {"OBJECT_NAME": "IRIDIUM 33 DEB", "OBJECT_ID": "1997-051AF", "EPOCH": "2025-12-22T12:52:54.283296", "MEAN_MOTION": 14.69620886, "ECCENTRICITY": 0.00524276, "INCLINATION": 86.4077, "RA_OF_ASC_NODE": 33.2095, "ARG_OF_PERICENTER": 36.2617, "MEAN_ANOMALY": 82.096, "EPHEMERIS_TYPE": 0, "CLASSIFICATION_TYPE": "U", "NORAD_CAT_ID": 33862, "ELEMENT_SET_NO": 999, "REV_AT_EPOCH": 88967, "BSTAR": 0.0015539154, "MEAN_MOTION_DOT": 9.461e-05, "MEAN_MOTION_DDOT": 0}, "tle": {"line1": "1 33862U 97051AF  25356.53673939  .00009461  00000+0  15539-2 0  9994", "line2": "2 33862  86.4077  33.2095 0052427  36.2617  82.0960 14.69620886889676"}}, "geometry": {"type": "Point", "coordinates": [37.23603294173271, 50.759641725505844]}}, {"type": "Feature", "properties": {"norad_id": 33866, "name": "IRIDIUM 33 DEB", "group": "iridium-33-debris", "lat": -39.63186870441488, "lon": -88.40594161632644, "alt_km": 816.1181314510122, "timestamp": "2025-12-23T09:49:07.467815+00:00", "meta": {"OBJECT_NAME": "IRIDIUM 33 DEB", "OBJECT_ID": "1997-051AK", "EPOCH": "2025-12-22T05:58:49.941696", "MEAN_MOTION": 14.25302348, "ECCENTRICITY": 0.01150469, "INCLINATION": 86.3001, "RA_OF_ASC_NODE": 89.0128, "ARG_OF_PERICENTER": 131.2544, "MEAN_ANOMALY": 259.1044, "EPHEMERIS_TYPE": 0, "CLASSIFICATION_TYPE": "U", "NORAD_CAT_ID": 33866, "ELEMENT_SET_NO": 999, "REV_AT_EPOCH": 86946, "BSTAR": 0.00050535562, "MEAN_MOTION_DOT": 1.294e-05, "MEAN_MOTION_DDOT": 0}, "tle": {"line1": "1 33866U 97051AK  25356.24918914  .00001294  00000+0  50536-3 0  9994", "line2": "2 33866  86.3001  89.0128 0115046 131.2544 259.1044 14.25302348869461"}}, "geometry": {"type": "Point", "coordinates": [-88.40594161632644, -39.63186870441488]}}]}